STARS (KUKAI)           
1 33498U 09002G   26068.71826512  .00006351  00000+0  58664-3 0  9998
2 33498  98.1461  12.0831 0009772 130.4363 229.7710 14.94938540923614
STARLINK-5423           
1 55670U 23021AU  26068.67281274 -.00000983  00000+0 -74616-4 0  9999
2 55670  70.0011 164.4345 0003342 267.8807  92.1969 14.98327109169287
